STARLINK-31642          
1 59726U 24088U   26068.46287459  .00000328  00000+0  23218-4 0  9990
2 59726  53.1608 141.2302 0001211  92.3922 267.7217 15.30187317103641
TEVEL2-5                
1 63214U 25052E   26068.96660006  .00021339  00000+0  71765-3 0  9991
2 63214  97.4013 325.3677 0004700  95.3936 264.7842 15.30817434 54919
